OBJECT_NAME,OBJECT_ID,EPOCH,MEAN_MOTION,ECCENTRICITY,INCLINATION,RA_OF_ASC_NODE,ARG_OF_PERICENTER,MEAN_ANOMALY,EPHEMERIS_TYPE,CLASSIFICATION_TYPE,NORAD_CAT_ID,ELEMENT_SET_NO,REV_AT_EPOCH,BSTAR,MEAN_MOTION_DOT,MEAN_MOTION_DDOT
STARLINK-37587,2026-154U,2026-07-17T22:00:01.999584,15.80907122,.00012245,53.1589,279.1541,76.5851,19.4998,0,U,69837,999,307,-.36691813E-3,-.72626E-3,0
STARLINK-37590,2026-154V,2026-07-17T22:00:01.999584,15.80913229,.00008054,53.1589,279.1455,94.8761,5.4762,0,U,69838,999,294,-.43722873E-3,-.86293E-3,0
STARLINK-37589,2026-154W,2026-07-17T22:00:01.999584,15.80914190,.00011813,53.1588,279.1364,91.0193,13.6056,0,U,69839,999,307,-.43589762E-3,-.86043E-3,0
STARLINK-37487,2026-154X,2026-07-17T22:00:01.999584,15.84931287,.00008176,53.1566,278.6706,84.4386,244.2290,0,U,69840,999,308,-.70116021E-2,-.1483411E-1,0
STARLINK-37433,2026-154Y,2026-07-17T22:00:01.999584,15.83605895,.00006326,53.1575,278.6615,85.7566,247.1402,0,U,69841,999,321,-.11060773E-1,-.212912E-1,0
STARLINK-37588,2026-154Z,2026-07-17T22:00:01.999584,15.85953151,.0000541,53.1562,278.6390,83.0823,260.7319,0,U,69842,999,311,-.10898155E-1,-.2373362E-1,0
STARLINK-37579,2026-154AA,2026-07-17T22:00:01.999584,15.84506349,.0000681,53.1570,278.6345,76.6601,269.1839,0,U,69843,999,311,-.96860779E-2,-.1972443E-1,0
STARLINK-37584,2026-154AB,2026-07-17T22:00:01.999584,15.84053241,.00006441,53.1574,278.6228,90.0497,261.3494,0,U,69844,999,311,-.10979821E-1,-.2155022E-1,0
STARLINK-37606,2026-154AC,2026-07-17T22:00:01.999584,15.84018870,.00008611,53.1567,278.6130,79.3202,276.5375,0,U,69845,999,311,-.93223133E-2,-.1869314E-1,0
STARLINK-37603,2026-154AD,2026-07-17T22:00:01.999584,15.83482154,.00007568,53.1571,278.6017,63.6833,297.5687,0,U,69846,999,311,-.11895265E-1,-.2307585E-1,0
STARLINK-37595,2026-154AE,2026-07-17T22:00:01.999584,15.83395138,.00006759,53.1572,278.5915,81.4569,284.5334,0,U,69847,999,311,-.92909942E-2,-.1815352E-1,0
QIANFAN-219,2026-155A,2026-07-17T21:20:59.806176,14.26455281,.00307586,89.0065,60.6396,213.9363,145.9864,0,U,69848,999,176,.17912296E-4,.58E-6,0
QIANFAN-220,2026-155B,2026-07-17T20:03:36.390240,14.15144118,.00340039,89.0064,60.6507,211.1294,148.7880,0,U,69849,999,175,-.11202131E+1,-.2023166E-1,0
QIANFAN-221,2026-155C,2026-07-17T21:19:42.506688,14.26647613,.00305682,89.0064,60.6394,214.3676,145.5541,0,U,69850,999,176,.75743849E-4,.198E-5,0
QIANFAN-222,2026-155D,2026-07-17T19:58:00.985440,14.22185075,.00295553,89.0065,60.6495,214.6997,145.2267,0,U,69851,999,175,.15570034E-4,.49E-6,0
QIANFAN-223,2026-155E,2026-07-17T21:36:07.332768,14.22140062,.00293075,89.0066,60.6414,213.8157,146.1166,0,U,69852,999,176,.64142235E-4,.157E-5,0
QIANFAN-224,2026-155F,2026-07-17T21:29:45.028320,14.18497223,.00311144,89.0052,60.6399,224.5648,135.3039,0,U,69853,999,176,-.93450076E+0,-.1809487E-1,0
QIANFAN-225,2026-155G,2026-07-17T21:29:26.890368,14.22450847,.00292273,89.0064,60.6404,214.8264,145.1016,0,U,69854,999,176,.81587534E-4,.197E-5,0
QIANFAN-226,2026-155H,2026-07-17T21:27:29.820960,14.22558641,.00303575,89.0063,60.6400,214.5919,145.3299,0,U,69855,999,176,.7925534E-5,.32E-6,0
QIANFAN-227,2026-155J,2026-07-17T19:39:14.948064,14.20810576,.0029596,89.0057,60.6476,214.6719,145.2543,0,U,69856,999,175,-.10100914E+1,-.202495E-1,0
QIANFAN-228,2026-155K,2026-07-17T19:38:04.300512,14.20885407,.00307899,89.0054,60.6479,216.5012,143.4081,0,U,69857,999,175,-.96549469E+0,-.1944972E-1,0
QIANFAN-229,2026-155L,2026-07-17T21:18:59.004288,14.26689862,.00306983,89.0064,60.6394,213.9894,145.9334,0,U,69858,999,176,.63408065E-4,.168E-5,0
QIANFAN-230,2026-155M,2026-07-17T21:41:32.151840,14.16167691,.00329611,89.0054,60.6411,222.0372,137.8286,0,U,69859,999,176,-.10463152E+1,-.1931944E-1,0
QIANFAN-231,2026-155N,2026-07-17T21:24:01.680768,14.26096739,.00307749,89.0066,60.6401,213.3370,146.5887,0,U,69860,999,176,.73026313E-4,.19E-5,0
QIANFAN-232,2026-155P,2026-07-17T21:18:47.675520,14.26736475,.00305772,89.0063,60.6393,214.6176,145.3028,0,U,69861,999,176,.76993497E-4,.202E-5,0
QIANFAN-233,2026-155Q,2026-07-17T21:18:37.071648,14.26752277,.00305168,89.0065,60.6394,214.4345,145.4872,0,U,69862,999,176,.57205107E-4,.154E-5,0
QIANFAN-234,2026-155R,2026-07-17T21:18:32.201280,14.26758929,.00304954,89.0065,60.6395,214.4816,145.4401,0,U,69863,999,176,.70996917E-4,.187E-5,0
QIANFAN-235,2026-155S,2026-07-17T21:18:27.828576,14.26764813,.00304527,89.0064,60.6393,214.5012,145.4206,0,U,69864,999,176,.68383558E-4,.181E-5,0
QIANFAN-236,2026-155T,2026-07-17T21:18:24.053760,14.26769855,.0030424,89.0065,60.6394,214.5327,145.3892,0,U,69865,999,176,.14541927E-4,.5E-6,0
QIANFAN-237,2026-155U,2026-07-17T21:18:17.786304,14.26778143,.00303977,89.0065,60.6394,214.5559,145.3660,0,U,69866,999,175,.4261845E-4,.118E-5,0
