STARLINK-37587          
1 69837U 26154U   26198.91668981 -.00072626  00000+0 -36692-3 0  9998
2 69837  53.1589 279.1541 0001224  76.5851  19.4998 15.80907122  3071
STARLINK-37590          
1 69838U 26154V   26198.91668981 -.00086293  00000+0 -43723-3 0  9997
2 69838  53.1589 279.1455 0000805  94.8761   5.4762 15.80913229  2947
STARLINK-37589          
1 69839U 26154W   26198.91668981 -.00086043  00000+0 -43590-3 0  9993
2 69839  53.1588 279.1364 0001181  91.0193  13.6056 15.80914190  3072
STARLINK-37487          
1 69840U 26154X   26198.91668981 -.01483411  00000+0 -70116-2 0  9999
2 69840  53.1566 278.6706 0000817  84.4386 244.2290 15.84931287  3082
STARLINK-37433          
1 69841U 26154Y   26198.91668981 -.02129120  00000+0 -11061-1 0  9998
2 69841  53.1575 278.6615 0000632  85.7566 247.1402 15.83605895  3215
STARLINK-37588          
1 69842U 26154Z   26198.91668981 -.02373362  00000+0 -10898-1 0  9995
2 69842  53.1562 278.6390 0000541  83.0823 260.7319 15.85953151  3118
STARLINK-37579          
1 69843U 26154AA  26198.91668981 -.01972443  00000+0 -96861-2 0  9995
2 69843  53.1570 278.6345 0000681  76.6601 269.1839 15.84506349  3117
STARLINK-37584          
1 69844U 26154AB  26198.91668981 -.02155022  00000+0 -10980-1 0  9990
2 69844  53.1574 278.6228 0000644  90.0497 261.3494 15.84053241  3113
STARLINK-37606          
1 69845U 26154AC  26198.91668981 -.01869314  00000+0 -93223-2 0  9998
2 69845  53.1567 278.6130 0000861  79.3202 276.5375 15.84018870  3118
STARLINK-37603          
1 69846U 26154AD  26198.91668981 -.02307585  00000+0 -11895-1 0  9991
2 69846  53.1571 278.6017 0000756  63.6833 297.5687 15.83482154  3115
STARLINK-37595          
1 69847U 26154AE  26198.91668981 -.01815352  00000+0 -92910-2 0  9995
2 69847  53.1572 278.5915 0000675  81.4569 284.5334 15.83395138  3117
QIANFAN-219             
1 69848U 26155A   26198.88958109  .00000058  00000+0  17912-4 0  9994
2 69848  89.0065  60.6396 0030758 213.9363 145.9864 14.26455281  1764
QIANFAN-220             
1 69849U 26155B   26198.83583785 -.02023166  00000+0 -11202+1 0  9995
2 69849  89.0064  60.6507 0034003 211.1294 148.7880 14.15144118  1758
QIANFAN-221             
1 69850U 26155C   26198.88868642  .00000198  00000+0  75744-4 0  9991
2 69850  89.0064  60.6394 0030568 214.3676 145.5541 14.26647613  1765
QIANFAN-222             
1 69851U 26155D   26198.83195585  .00000049  00000+0  15570-4 0  9992
2 69851  89.0065  60.6495 0029555 214.6997 145.2267 14.22185075  1758
QIANFAN-223             
1 69852U 26155E   26198.90008487  .00000157  00000+0  64142-4 0  9994
2 69852  89.0066  60.6414 0029307 213.8157 146.1166 14.22140062  1761
QIANFAN-224             
1 69853U 26155F   26198.89566005 -.01809487  00000+0 -93450+0 0  9993
2 69853  89.0052  60.6399 0031114 224.5648 135.3039 14.18497223  1760
QIANFAN-225             
1 69854U 26155G   26198.89545012  .00000197  00000+0  81588-4 0  9991
2 69854  89.0064  60.6404 0029227 214.8264 145.1016 14.22450847  1769
QIANFAN-226             
1 69855U 26155H   26198.89409515  .00000032  00000+0  79255-5 0  9996
2 69855  89.0063  60.6400 0030357 214.5919 145.3299 14.22558641  1761
QIANFAN-227             
1 69856U 26155J   26198.81892301 -.02024950  00000+0 -10101+1 0  9997
2 69856  89.0057  60.6476 0029596 214.6719 145.2543 14.20810576  1756
QIANFAN-228             
1 69857U 26155K   26198.81810533 -.01944972  00000+0 -96549+0 0  9998
2 69857  89.0054  60.6479 0030789 216.5012 143.4081 14.20885407  1752
QIANFAN-229             
1 69858U 26155L   26198.88818292  .00000168  00000+0  63408-4 0  9996
2 69858  89.0064  60.6394 0030698 213.9894 145.9334 14.26689862  1760
QIANFAN-230             
1 69859U 26155M   26198.90384435 -.01931944  00000+0 -10463+1 0  9994
2 69859  89.0054  60.6411 0032961 222.0372 137.8286 14.16167691  1763
QIANFAN-231             
1 69860U 26155N   26198.89168612  .00000190  00000+0  73026-4 0  9996
2 69860  89.0066  60.6401 0030774 213.3370 146.5887 14.26096739  1767
QIANFAN-232             
1 69861U 26155P   26198.88805180  .00000202  00000+0  76993-4 0  9994
2 69861  89.0063  60.6393 0030577 214.6176 145.3028 14.26736475  1766
QIANFAN-233             
1 69862U 26155Q   26198.88792907  .00000154  00000+0  57205-4 0  9998
2 69862  89.0065  60.6394 0030516 214.4345 145.4872 14.26752277  1765
QIANFAN-234             
1 69863U 26155R   26198.88787270  .00000187  00000+0  70997-4 0  9995
2 69863  89.0065  60.6395 0030495 214.4816 145.4401 14.26758929  1764
QIANFAN-235             
1 69864U 26155S   26198.88782209  .00000181  00000+0  68384-4 0  9994
2 69864  89.0064  60.6393 0030452 214.5012 145.4206 14.26764813  1766
QIANFAN-236             
1 69865U 26155T   26198.88777840  .00000050  00000+0  14542-4 0  9992
2 69865  89.0065  60.6394 0030424 214.5327 145.3892 14.26769855  1768
QIANFAN-237             
1 69866U 26155U   26198.88770586  .00000118  00000+0  42618-4 0  9993
2 69866  89.0065  60.6394 0030397 214.5559 145.3660 14.26778143  1757
